[{"OBJECT_NAME":"OBJECT C","OBJECT_ID":"2024-085C","EPOCH":"2026-03-09T22:49:58.289376","MEAN_MOTION":15.31893958,"ECCENTRICITY":0.00283931,"INCLINATION":97.3357,"RA_OF_ASC_NODE":145.6975,"ARG_OF_PERICENTER":37.3887,"MEAN_ANOMALY":322.9323,"EPHEMERIS_TYPE":0,"CLASSIFICATION_TYPE":"U","NORAD_CAT_ID":59679,"ELEMENT_SET_NO":999,"REV_AT_EPOCH":10244,"BSTAR":0.00039740634,"MEAN_MOTION_DOT":0.0001232,"MEAN_MOTION_DDOT":0},{"OBJECT_NAME":"STARLINK-32943","OBJECT_ID":"2025-032U","EPOCH":"2026-03-09T04:16:08.774112","MEAN_MOTION":15.27596857,"ECCENTRICITY":0.00037679,"INCLINATION":43.0042,"RA_OF_ASC_NODE":338.7751,"ARG_OF_PERICENTER":242.451,"MEAN_ANOMALY":117.5959,"EPHEMERIS_TYPE":0,"CLASSIFICATION_TYPE":"U","NORAD_CAT_ID":63023,"ELEMENT_SET_NO":999,"REV_AT_EPOCH":6054,"BSTAR":0.0008796104,"MEAN_MOTION_DOT":0.00024037,"MEAN_MOTION_DDOT":0}]
